[{"OBJECT_NAME":"OBJECT Y","OBJECT_ID":"2023-085Y","EPOCH":"2026-03-09T22:38:54.992256","MEAN_MOTION":15.32500153,"ECCENTRICITY":0.00063298,"INCLINATION":97.4849,"RA_OF_ASC_NODE":180.8653,"ARG_OF_PERICENTER":67.4431,"MEAN_ANOMALY":292.748,"EPHEMERIS_TYPE":0,"CLASSIFICATION_TYPE":"U","NORAD_CAT_ID":57026,"ELEMENT_SET_NO":999,"REV_AT_EPOCH":15160,"BSTAR":0.00065512761,"MEAN_MOTION_DOT":0.00020524,"MEAN_MOTION_DDOT":0},{"OBJECT_NAME":"STARLINK-35428","OBJECT_ID":"2025-237B","EPOCH":"2026-03-09T22:05:18.399840","MEAN_MOTION":15.30283985,"ECCENTRICITY":0.00011106,"INCLINATION":53.1611,"RA_OF_ASC_NODE":38.7127,"ARG_OF_PERICENTER":123.7277,"MEAN_ANOMALY":236.383,"EPHEMERIS_TYPE":0,"CLASSIFICATION_TYPE":"U","NORAD_CAT_ID":66115,"ELEMENT_SET_NO":999,"REV_AT_EPOCH":2263,"BSTAR":0.0020127035,"MEAN_MOTION_DOT":0.00059889,"MEAN_MOTION_DDOT":0}]
